{
  "type": "FeatureCollection",
  "features": [
    {
      "type": "Feature",
      "properties": {
        "norad_id": 66732,
        "name": "FLOCK 4H-29",
        "group": "last-30-days",
        "lat": -1.819660869865101,
        "lon": -111.80246607899406,
        "alt_km": 519.4158994523541,
        "timestamp": "2025-12-22T20:43:44.565204+00:00",
        "meta_object_name": "FLOCK 4H-29",
        "meta_object_id": "2025-276BU",
        "meta_epoch": "2025-12-22T10:25:53.751360",
        "meta_mean_motion": 15.17018278,
        "meta_eccentricity": 0.00017222,
        "meta_inclination": 97.4395,
        "meta_ra_of_asc_node": 68.0143,
        "meta_arg_of_pericenter": 317.5113,
        "meta_mean_anomaly": 42.5987,
        "meta_ephemeris_type": 0,
        "meta_classification_type": "U",
        "meta_norad_cat_id": 66732,
        "meta_element_set_no": 999,
        "meta_rev_at_epoch": 359,
        "meta_bstar": -0.0080869247,
        "meta_mean_motion_dot": -0.0015644,
        "meta_mean_motion_ddot": 0,
        "tle_line1": "1 66732U 25276BU  25356.43464990 -.00156440  00000+0 -80869-2 0  9990",
        "tle_line2": "2 66732  97.4395  68.0143 0001722 317.5113  42.5987 15.17018278  3590"
      },
      "geometry": {
        "type": "Point",
        "coordinates": [
          -111.80246607899406,
          -1.819660869865101
        ]
      }
    },
    {
      "type": "Feature",
      "properties": {
        "norad_id": 66733,
        "name": "FLOCK 4H-30",
        "group": "last-30-days",
        "lat": 3.6096349853473813,
        "lon": -111.06952628762747,
        "alt_km": 515.2878111320861,
        "timestamp": "2025-12-22T20:43:44.565218+00:00",
        "meta_object_name": "FLOCK 4H-30",
        "meta_object_id": "2025-276BV",
        "meta_epoch": "2025-12-22T08:52:29.817120",
        "meta_mean_motion": 15.17276414,
        "meta_eccentricity": 0.0004153,
        "meta_inclination": 97.4432,
        "meta_ra_of_asc_node": 67.9727,
        "meta_arg_of_pericenter": 240.8291,
        "meta_mean_anomaly": 119.2528,
        "meta_ephemeris_type": 0,
        "meta_classification_type": "U",
        "meta_norad_cat_id": 66733,
        "meta_element_set_no": 999,
        "meta_rev_at_epoch": 358,
        "meta_bstar": 0.0014141253,
        "meta_mean_motion_dot": 0.00028188,
        "meta_mean_motion_ddot": 0,
        "tle_line1": "1 66733U 25276BV  25356.36978955  .00028188  00000+0  14141-2 0  9999",
        "tle_line2": "2 66733  97.4432  67.9727 0004153 240.8291 119.2528 15.17276414  3585"
      },
      "geometry": {
        "type": "Point",
        "coordinates": [
          -111.06952628762747,
          3.6096349853473813
        ]
      }
    },
    {
      "type": "Feature",
      "properties": {
        "norad_id": 66734,
        "name": "FLOCK 4H-31",
        "group": "last-30-days",
        "lat": 3.0015771641401647,
        "lon": -111.1755147537137,
        "alt_km": 515.5168738271132,
        "timestamp": "2025-12-22T20:43:44.565229+00:00",
        "meta_object_name": "FLOCK 4H-31",
        "meta_object_id": "2025-276BW",
        "meta_epoch": "2025-12-22T10:27:16.086240",
        "meta_mean_motion": 15.17171185,
        "meta_eccentricity": 0.00026122,
        "meta_inclination": 97.4387,
        "meta_ra_of_asc_node": 68.0117,
        "meta_arg_of_pericenter": 208.479,
        "meta_mean_anomaly": 151.6301,
        "meta_ephemeris_type": 0,
        "meta_classification_type": "U",
        "meta_norad_cat_id": 66734,
        "meta_element_set_no": 999,
        "meta_rev_at_epoch": 359,
        "meta_bstar": 0.00010857684,
        "meta_mean_motion_dot": 2.089e-05,
        "meta_mean_motion_ddot": 0,
        "tle_line1": "1 66734U 25276BW  25356.43560285  .00002089  00000+0  10858-3 0  9995",
        "tle_line2": "2 66734  97.4387  68.0117 0002612 208.4790 151.6301 15.17171185  3591"
      },
      "geometry": {
        "type": "Point",
        "coordinates": [
          -111.1755147537137,
          3.0015771641401647
        ]
      }
    },
    {
      "type": "Feature",
      "properties": {
        "norad_id": 66735,
        "name": "FLOCK 4H-32",
        "group": "last-30-days",
        "lat": 5.324379487823896,
        "lon": -110.85227761995986,
        "alt_km": 516.4459960518861,
        "timestamp": "2025-12-22T20:43:44.565239+00:00",
        "meta_object_name": "FLOCK 4H-32",
        "meta_object_id": "2025-276BX",
        "meta_epoch": "2025-12-22T12:02:51.813312",
        "meta_mean_motion": 15.17219909,
        "meta_eccentricity": 0.00036038,
        "meta_inclination": 97.4431,
        "meta_ra_of_asc_node": 68.0943,
        "meta_arg_of_pericenter": 262.49,
        "meta_mean_anomaly": 97.5924,
        "meta_ephemeris_type": 0,
        "meta_classification_type": "U",
        "meta_norad_cat_id": 66735,
        "meta_element_set_no": 999,
        "meta_rev_at_epoch": 360,
        "meta_bstar": 0.00051474548,
        "meta_mean_motion_dot": 0.00010176,
        "meta_mean_motion_ddot": 0,
        "tle_line1": "1 66735U 25276BX  25356.50198858  .00010176  00000+0  51475-3 0  9993",
        "tle_line2": "2 66735  97.4431  68.0943 0003603 262.4900  97.5924 15.17219909  3601"
      },
      "geometry": {
        "type": "Point",
        "coordinates": [
          -110.85227761995986,
          5.324379487823896
        ]
      }
    },
    {
      "type": "Feature",
      "properties": {
        "norad_id": 66736,
        "name": "FLOCK 4H-33",
        "group": "last-30-days",
        "lat": -81.23230291943925,
        "lon": -169.46809032407418,
        "alt_km": 518.8540704928155,
        "timestamp": "2025-12-22T20:43:44.565249+00:00",
        "meta_object_name": "FLOCK 4H-33",
        "meta_object_id": "2025-276BY",
        "meta_epoch": "2025-12-22T11:39:18.653184",
        "meta_mean_motion": 15.18279241,
        "meta_eccentricity": 0.00025995,
        "meta_inclination": 97.443,
        "meta_ra_of_asc_node": 68.1153,
        "meta_arg_of_pericenter": 161.2483,
        "meta_mean_anomaly": 198.8847,
        "meta_ephemeris_type": 0,
        "meta_classification_type": "U",
        "meta_norad_cat_id": 66736,
        "meta_element_set_no": 999,
        "meta_rev_at_epoch": 360,
        "meta_bstar": 0.00061269127,
        "meta_mean_motion_dot": 0.00012503,
        "meta_mean_motion_ddot": 0,
        "tle_line1": "1 66736U 25276BY  25356.48563256  .00012503  00000+0  61269-3 0  9997",
        "tle_line2": "2 66736  97.4430  68.1153 0002599 161.2483 198.8847 15.18279241  3605"
      },
      "geometry": {
        "type": "Point",
        "coordinates": [
          -169.46809032407418,
          -81.23230291943925
        ]
      }
    },
    {
      "type": "Feature",
      "properties": {
        "norad_id": 66737,
        "name": "FLOCK 4H-34",
        "group": "last-30-days",
        "lat": -74.35781008863982,
        "lon": -139.35055653763197,
        "alt_km": 518.6679699548558,
        "timestamp": "2025-12-22T20:43:44.565260+00:00",
        "meta_object_name": "FLOCK 4H-34",
        "meta_object_id": "2025-276BZ",
        "meta_epoch": "2025-12-22T11:41:40.904736",
        "meta_mean_motion": 15.18148655,
        "meta_eccentricity": 0.00024519,
        "meta_inclination": 97.4444,
        "meta_ra_of_asc_node": 68.1181,
        "meta_arg_of_pericenter": 170.0556,
        "meta_mean_anomaly": 190.0727,
        "meta_ephemeris_type": 0,
        "meta_classification_type": "U",
        "meta_norad_cat_id": 66737,
        "meta_element_set_no": 999,
        "meta_rev_at_epoch": 285,
        "meta_bstar": 0.00055532814,
        "meta_mean_motion_dot": 0.00011282,
        "meta_mean_motion_ddot": 0,
        "tle_line1": "1 66737U 25276BZ  25356.48727899  .00011282  00000+0  55533-3 0  9993",
        "tle_line2": "2 66737  97.4444  68.1181 0002451 170.0556 190.0727 15.18148655  2859"
      },
      "geometry": {
        "type": "Point",
        "coordinates": [
          -139.35055653763197,
          -74.35781008863982
        ]
      }
    },
    {
      "type": "Feature",
      "properties": {
        "norad_id": 66738,
        "name": "FLOCK 4H-35",
        "group": "last-30-days",
        "lat": -81.09548289519778,
        "lon": -168.04867177573848,
        "alt_km": 519.2158456763391,
        "timestamp": "2025-12-22T20:43:44.565269+00:00",
        "meta_object_name": "FLOCK 4H-35",
        "meta_object_id": "2025-276CA",
        "meta_epoch": "2025-12-22T11:39:21.928608",
        "meta_mean_motion": 15.18240155,
        "meta_eccentricity": 0.00025349,
        "meta_inclination": 97.4408,
        "meta_ra_of_asc_node": 68.1074,
        "meta_arg_of_pericenter": 152.1574,
        "meta_mean_anomaly": 207.9796,
        "meta_ephemeris_type": 0,
        "meta_classification_type": "U",
        "meta_norad_cat_id": 66738,
        "meta_element_set_no": 999,
        "meta_rev_at_epoch": 289,
        "meta_bstar": 0.00056054622,
        "meta_mean_motion_dot": 0.00011419,
        "meta_mean_motion_ddot": 0,
        "tle_line1": "1 66738U 25276CA  25356.48567047  .00011419  00000+0  56055-3 0  9993",
        "tle_line2": "2 66738  97.4408  68.1074 0002534 152.1574 207.9796 15.18240155  2890"
      },
      "geometry": {
        "type": "Point",
        "coordinates": [
          -168.04867177573848,
          -81.09548289519778
        ]
      }
    }
  ]
}